      2.10          N: GNSS NAV DATA                        RINEX VERSION / TYPE
fic2rin                                 02/15/2019 00:18:36 PGM / RUN BY / DATE
                                                            END OF HEADER
21 19  2 14 18  0  0.0-2.501988783479e-04 7.162270776462e-12 0.000000000000e+00
    3.600000000000e+01-1.100000000000e+02 4.689838207729e-09 1.039351487538e+00
   -6.014481186867e-06 2.474654372782e-02 8.905306458473e-06 5.153801811218e+03
    4.104000000000e+05-2.887099981308e-07-1.162924462963e+00-4.470348358154e-07
    9.470317834008e-01 2.090937500000e+02-1.477123180590e+00-8.493925234651e-09
    4.357324357192e-11 1.000000000000e+00 2.040000000000e+03 0.000000000000e+00
    2.400000000000e+00 0.000000000000e+00-1.024454832077e-08 3.600000000000e+01
    4.032000000000e+05 4.000000000000e+00
24 19  2 14 18  0  0.0-6.216019392014e-05-5.684341886081e-13 0.000000000000e+00
    9.000000000000e+01 5.600000000000e+01 4.899132639968e-09 3.086979082167e+00
    2.745538949966e-06 8.175360038877e-03 1.029483973980e-05 5.153734273911e+03
    4.104000000000e+05-8.940696716309e-08 1.986022448047e+00-1.378357410431e-07
    9.391116458610e-01 1.685937500000e+02 5.953615119738e-01-8.033191757538e-09
   -3.589435228671e-10 1.000000000000e+00 2.040000000000e+03 0.000000000000e+00
    2.400000000000e+00 0.000000000000e+00 2.793967723846e-09 9.000000000000e+01
    4.032000000000e+05 4.000000000000e+00
26 19  2 14 18  0  0.0 1.243986189365e-04 1.034550223267e-11 0.000000000000e+00
    1.010000000000e+02 8.865625000000e+01 4.766269962847e-09 4.378855051518e-01
    4.610046744347e-06 3.643083735369e-03 5.777925252914e-06 5.153800777435e+03
    4.104000000000e+05 0.000000000000e+00 3.058384990720e+00 1.862645149231e-09
    9.530622038263e-01 2.585000000000e+02 1.267064728046e-01-8.353205087378e-09
   -2.107230631757e-11 1.000000000000e+00 2.040000000000e+03 0.000000000000e+00
    2.400000000000e+00 0.000000000000e+00 7.450580596924e-09 1.010000000000e+02
    4.032000000000e+05 4.000000000000e+00
20 19  2 14 18  0  0.0 5.222023464739e-04 3.410605131648e-13 0.000000000000e+00
    1.040000000000e+02-1.306250000000e+01 5.250218692682e-09 2.487716702060e+00
   -6.854534149170e-07 4.407759755850e-03 8.843839168549e-06 5.153672500610e+03
    4.104000000000e+05 1.024454832077e-07-1.772322312567e-01 4.470348358154e-08
    9.303766819690e-01 1.905937500000e+02 2.276618474640e+00-8.274987543589e-09
    4.432327481373e-10 1.000000000000e+00 2.040000000000e+03 0.000000000000e+00
    2.400000000000e+00 0.000000000000e+00-8.381903171539e-09 1.040000000000e+02
    4.032000000000e+05 4.000000000000e+00
 4 19  2 14 18  0  0.0 1.133843325078e-04 9.436007530894e-12 0.000000000000e+00
    2.290000000000e+02-4.812500000000e+00 4.906990110120e-09 1.977119348054e+00
   -2.440065145493e-07 3.198547055945e-04 7.446855306625e-06 5.153574420929e+03
    4.104000000000e+05-2.235174179077e-08 1.017793817004e+00-1.862645149231e-09
    9.597716113458e-01 2.390937500000e+02-1.507497097671e+00-8.126409926163e-09
   -1.435774091468e-10 1.000000000000e+00 2.040000000000e+03 0.000000000000e+00
    3.400000000000e+00 6.300000000000e+01-8.847564458847e-09 4.850000000000e+02
    4.032300000000e+05 4.000000000000e+00
 2 19  2 14 20  0  0.0-1.398790627718e-04-9.890754881781e-12 0.000000000000e+00
    6.100000000000e+01-7.656250000000e+01 4.422327064816e-09-2.134809849388e+00
   -3.933906555176e-06 1.887573837303e-02 8.167698979378e-06 5.153652986526e+03
    4.176000000000e+05 3.296881914139e-07-1.168108039611e+00-4.656612873077e-08
    9.533364775595e-01 2.147500000000e+02-1.774035298937e+00-7.749251358852e-09
    7.286017777600e-11 1.000000000000e+00 2.040000000000e+03 0.000000000000e+00
    2.400000000000e+00 0.000000000000e+00-2.048909664154e-08 6.100000000000e+01
    4.104000000000e+05 4.000000000000e+00
 1 19  2 14 20  0  0.0-1.632878556848e-04-6.934897101019e-12 0.000000000000e+00
    1.120000000000e+02-9.490625000000e+01 3.946950120601e-09-2.444754761117e+00
   -4.880130290985e-06 8.394203730859e-03 8.655712008476e-06 5.153660757065e+03
    4.176000000000e+05 7.450580596924e-09-1.101477490010e+00-5.774199962616e-08
    9.742591319291e-01 2.206562500000e+02 6.845025555247e-01-7.666033606785e-09
    1.171477368163e-10 1.000000000000e+00 2.040000000000e+03 0.000000000000e+00
    2.400000000000e+00 0.000000000000e+00 5.587935447693e-09 1.120000000000e+02
    4.104000000000e+05 4.000000000000e+00
 3 19  2 14 20  0  0.0 1.829331740737e-04 1.818989403546e-12 0.000000000000e+00
    3.600000000000e+01-7.625000000000e+00 4.430184534968e-09 2.825286963811e+00
   -3.073364496231e-07 1.900901901536e-03 8.890405297279e-06 5.153578317642e+03
    4.176000000000e+05 9.313225746155e-09-5.901997137871e-02-3.725290298462e-08
    9.627579113714e-01 2.085937500000e+02 6.320392469259e-01-7.894257398936e-09
    4.875203071777e-10 1.000000000000e+00 2.040000000000e+03 0.000000000000e+00
    2.400000000000e+00 0.000000000000e+00 2.328306436539e-09 3.600000000000e+01
    4.104000000000e+05 4.000000000000e+00
 5 19  2 14 20  0  0.0 1.083128154278e-06 0.000000000000e+00 0.000000000000e+00
    9.100000000000e+01-6.656250000000e+00 4.812700468292e-09 4.935029265721e-01
   -2.551823854446e-07 5.557697848417e-03 8.473172783852e-06 5.153625837326e+03
    4.176000000000e+05-5.587935447693e-08-8.444914489157e-02 1.173466444016e-07
    9.496307422179e-01 2.105625000000e+02 7.136175394349e-01-8.191412633787e-09
    4.132314984649e-10 1.000000000000e+00 2.040000000000e+03 0.000000000000e+00
    2.400000000000e+00 0.000000000000e+00-1.117587089539e-08 9.100000000000e+01
    4.104000000000e+05 4.000000000000e+00
 6 19  2 14 20  0  0.0 2.757199108601e-04-8.185452315956e-12 0.000000000000e+00
    7.900000000000e+01-7.856250000000e+01 4.063383541949e-09-2.239225270343e+00
   -4.090368747711e-06 1.458141719922e-03 8.760020136833e-06 5.153797603607e+03
    4.176000000000e+05 6.146728992462e-08-1.109766151243e+00 2.607703208923e-08
    9.739233249357e-01 2.195937500000e+02-1.161220941673e+00-7.866756253403e-09
    1.321483616526e-11 1.000000000000e+00 2.040000000000e+03 0.000000000000e+00
    2.400000000000e+00 0.000000000000e+00 4.656612873077e-09 7.900000000000e+01
    4.104000000000e+05 4.000000000000e+00
14 19  2 14 20  0  0.0-9.139860048890e-05 6.821210263297e-13 0.000000000000e+00
    8.000000000000e+00-1.750000000000e+00 4.951277669160e-09-5.087918848814e-01
   -1.862645149231e-08 1.014850859065e-02 7.314607501030e-06 5.153663171768e+03
    4.176000000000e+05-6.891787052155e-08 1.065285252218e+00 1.061707735062e-07
    9.604481670699e-01 2.419375000000e+02-1.949230125647e+00-8.302488689122e-09
   -1.546492989069e-10 1.000000000000e+00 2.040000000000e+03 0.000000000000e+00
    2.400000000000e+00 0.000000000000e+00-9.778887033463e-09 8.000000000000e+00
    4.104000000000e+05 4.000000000000e+00
16 19  2 14 20  0  0.0-1.922203227878e-05-2.501110429876e-12 0.000000000000e+00
    2.800000000000e+01 9.631250000000e+01 4.117314359812e-09 6.066782249146e-01
    5.252659320831e-06 1.057523849886e-02 5.647540092468e-06 5.153778770447e+03
    4.176000000000e+05-2.607703208923e-08-3.116263059448e+00 1.024454832077e-07
    9.846230960641e-01 2.794062500000e+02 5.393172900556e-01-8.158911279975e-09
   -7.143154683922e-12 1.000000000000e+00 2.040000000000e+03 0.000000000000e+00
    2.400000000000e+00 0.000000000000e+00-1.071020960808e-08 2.800000000000e+01
    4.104000000000e+05 4.000000000000e+00
13 19  2 14 20  0  0.0-7.493514567614e-05 1.250555214938e-12 0.000000000000e+00
    4.800000000000e+01-5.531250000000e+00 4.623049711434e-09-1.374750514071e+00
   -2.086162567139e-07 3.720745095052e-03 7.512047886848e-06 5.153660324097e+03
    4.176000000000e+05 3.725290298462e-09 1.108998616644e+00 1.098960638046e-07
    9.678528819974e-01 2.390937500000e+02 1.371083961528e+00-8.007119242942e-09
   -1.796503403006e-10 1.000000000000e+00 2.040000000000e+03 0.000000000000e+00
    2.400000000000e+00 0.000000000000e+00-1.117587089539e-08 4.800000000000e+01
    4.104000000000e+05 4.000000000000e+00
 7 19  2 14 20  0  0.0 3.253528848290e-05-7.162270776462e-12 0.000000000000e+00
    3.100000000000e+01 3.528125000000e+01 4.586976780280e-09-3.065014285919e+00
    1.765787601471e-06 1.222185359802e-02 1.041777431965e-05 5.153611244202e+03
    4.176000000000e+05-3.911554813385e-08 2.050201502436e+00-1.583248376846e-07
    9.560074587594e-01 1.774062500000e+02-2.478690001582e+00-7.782467028133e-09
   -2.560820954186e-10 1.000000000000e+00 2.040000000000e+03 0.000000000000e+00
    2.400000000000e+00 0.000000000000e+00-1.117587089539e-08 3.100000000000e+01
    4.104000000000e+05 4.000000000000e+00
 8 19  2 14 20  0  0.0-1.327600330114e-04-1.477928890381e-12 0.000000000000e+00
    1.110000000000e+02-3.559375000000e+01 4.466257466122e-09 5.558557076785e-02
   -2.022832632065e-06 4.273220547475e-03 2.942979335785e-06 5.153694686890e+03
    4.176000000000e+05 1.192092895508e-07-2.168118737088e+00 2.421438694000e-08
    9.700697017426e-01 3.288750000000e+02-3.498359901303e-01-8.376063182367e-09
   -2.171519023912e-10 1.000000000000e+00 2.040000000000e+03 0.000000000000e+00
    2.400000000000e+00 0.000000000000e+00 5.122274160385e-09 1.110000000000e+02
    4.104000000000e+05 4.000000000000e+00
30 19  2 14 20  0  0.0-5.271332338452e-05-6.366462912410e-12 0.000000000000e+00
    3.000000000000e+01 4.443750000000e+01 4.955920719705e-09-3.050998088283e+00
    2.391636371613e-06 3.666621050797e-03 9.892508387566e-06 5.153629171371e+03
    4.176000000000e+05-3.352761268616e-08 2.079907480381e+00-1.676380634308e-08
    9.415178666840e-01 1.819062500000e+02-3.024532419755e+00-8.108194881719e-09
   -2.335811581642e-10 1.000000000000e+00 2.040000000000e+03 0.000000000000e+00
    2.400000000000e+00 0.000000000000e+00 3.725290298462e-09 3.000000000000e+01
    4.104000000000e+05 4.000000000000e+00
